STARLINK-31549          
1 59360U 24060N   26068.54255145  .00000187  00000+0  16322-4 0  9991
2 59360  43.0010 260.4047 0001334 282.4267  77.6435 15.27573190110046
OTTER                   
1 62623U 25009Q   26068.72300813  .00012198  00000+0  45151-3 0  9990
2 62623  97.4065 151.3812 0003573 310.7710  49.3219 15.27809545 63722
